[
    {
        "Altitude(m)": 554142.8523918808,
        "Argument of Periapsis(deg)": 0.019868973332140504,
        "Eccentricity": 0.0,
        "Inclination(deg)": 53.0,
        "Latitude(deg)": 23.373368512761452,
        "Longitude(deg)": -156.27884413433716,
        "Mean Anomaly(deg)": 150.27487860273277,
        "RAAN(deg)": 144.9704301055841,
        "Satellite Name": "Starlink Shell 1 645",
        "Satellite Number": 645,
        "Semi-Major Axis(m)": 6931778.249405717,
        "Time(s)": 570
    },
    {
        "Altitude(m)": 554090.935665856,
        "Argument of Periapsis(deg)": 0.02021755181165174,
        "Eccentricity": 0.0,
        "Inclination(deg)": 53.0,
        "Latitude(deg)": 22.896499010913626,
        "Longitude(deg)": -155.87503267681865,
        "Mean Anomaly(deg)": 150.90170980628946,
        "RAAN(deg)": 144.9699113355066,
        "Satellite Name": "Starlink Shell 1 645",
        "Satellite Number": 645,
        "Semi-Major Axis(m)": 6931778.249405717,
        "Time(s)": 580
    },
    {
        "Altitude(m)": 554040.8424201099,
        "Argument of Periapsis(deg)": 0.020566130291162974,
        "Eccentricity": 0.0,
        "Inclination(deg)": 53.0,
        "Latitude(deg)": 22.41836467476472,
        "Longitude(deg)": -155.4743240874389,
        "Mean Anomaly(deg)": 151.52854100984624,
        "RAAN(deg)": 144.96939256542913,
        "Satellite Name": "Starlink Shell 1 645",
        "Satellite Number": 645,
        "Semi-Major Axis(m)": 6931778.249405717,
        "Time(s)": 590
    },
    {
        "Altitude(m)": 553992.6176065197,
        "Argument of Periapsis(deg)": 0.020914708770674213,
        "Eccentricity": 0.0,
        "Inclination(deg)": 53.0,
        "Latitude(deg)": 21.93900291057493,
        "Longitude(deg)": -155.07663349305892,
        "Mean Anomaly(deg)": 152.15537221340296,
        "RAAN(deg)": 144.96887379535164,
        "Satellite Name": "Starlink Shell 1 645",
        "Satellite Number": 645,
        "Semi-Major Axis(m)": 6931778.249405717,
        "Time(s)": 600
    },
    {
        "Altitude(m)": 553946.3054035007,
        "Argument of Periapsis(deg)": 0.021263287250185448,
        "Eccentricity": 0.0,
        "Inclination(deg)": 53.0,
        "Latitude(deg)": 21.458450410675166,
        "Longitude(deg)": -154.68187719237278,
        "Mean Anomaly(deg)": 152.78220341695965,
        "RAAN(deg)": 144.96835502527415,
        "Satellite Name": "Starlink Shell 1 645",
        "Satellite Number": 645,
        "Semi-Major Axis(m)": 6931778.249405717,
        "Time(s)": 610
    },
    {
        "Altitude(m)": 553901.9491917642,
        "Argument of Periapsis(deg)": 0.021611865729696686,
        "Eccentricity": 0.0,
        "Inclination(deg)": 53.0,
        "Latitude(deg)": 20.976743177003275,
        "Longitude(deg)": -154.28997212990234,
        "Mean Anomaly(deg)": 153.4090346205163,
        "RAAN(deg)": 144.9678362551967,
        "Satellite Name": "Starlink Shell 1 645",
        "Satellite Number": 645,
        "Semi-Major Axis(m)": 6931778.249405717,
        "Time(s)": 620
    },
    {
        "Altitude(m)": 553859.5915304275,
        "Argument of Periapsis(deg)": 0.02196044420920792,
        "Eccentricity": 0.0,
        "Inclination(deg)": 53.0,
        "Latitude(deg)": 20.49391654413155,
        "Longitude(deg)": -153.90083705015078,
        "Mean Anomaly(deg)": 154.03586582407303,
        "RAAN(deg)": 144.96731748511925,
        "Satellite Name": "Starlink Shell 1 645",
        "Satellite Number": 645,
        "Semi-Major Axis(m)": 6931778.249405717,
        "Time(s)": 630
    },
    {
        "Altitude(m)": 553819.2741335143,
        "Argument of Periapsis(deg)": 0.02230902268871916,
        "Eccentricity": 0.0,
        "Inclination(deg)": 53.0,
        "Latitude(deg)": 20.010005201785468,
        "Longitude(deg)": -153.5143911295826,
        "Mean Anomaly(deg)": 154.66269702762978,
        "RAAN(deg)": 144.96679871504173,
        "Satellite Name": "Starlink Shell 1 645",
        "Satellite Number": 645,
        "Semi-Major Axis(m)": 6931778.249405717,
        "Time(s)": 640
    },
    {
        "Altitude(m)": 553781.0378468232,
        "Argument of Periapsis(deg)": 0.022657601168230398,
        "Eccentricity": 0.0,
        "Inclination(deg)": 53.0,
        "Latitude(deg)": 19.525043216869907,
        "Longitude(deg)": -153.13055512942427,
        "Mean Anomaly(deg)": 155.28952823118647,
        "RAAN(deg)": 144.96627994496427,
        "Satellite Name": "Starlink Shell 1 645",
        "Satellite Number": 645,
        "Semi-Major Axis(m)": 6931778.249405717,
        "Time(s)": 650
    },
    {
        "Altitude(m)": 553744.9226252298,
        "Argument of Periapsis(deg)": 0.023006179647741636,
        "Eccentricity": 0.0,
        "Inclination(deg)": 53.0,
        "Latitude(deg)": 19.039064055004147,
        "Longitude(deg)": -152.74925086693895,
        "Mean Anomaly(deg)": 155.9163594347432,
        "RAAN(deg)": 144.9657611748868,
        "Satellite Name": "Starlink Shell 1 645",
        "Satellite Number": 645,
        "Semi-Major Axis(m)": 6931778.249405717,
        "Time(s)": 660
    },
    {
        "Altitude(m)": 553710.9675103701,
        "Argument of Periapsis(deg)": 0.023354758127252868,
        "Eccentricity": 0.0,
        "Inclination(deg)": 53.0,
        "Latitude(deg)": 18.552100601580015,
        "Longitude(deg)": -152.37040068621758,
        "Mean Anomaly(deg)": 156.54319063829988,
        "RAAN(deg)": 144.96524240480932,
        "Satellite Name": "Starlink Shell 1 645",
        "Satellite Number": 645,
        "Semi-Major Axis(m)": 6931778.249405717,
        "Time(s)": 670
    },
    {
        "Altitude(m)": 553679.2106087821,
        "Argument of Periapsis(deg)": 0.023703336606764106,
        "Eccentricity": 0.0,
        "Inclination(deg)": 53.0,
        "Latitude(deg)": 18.064185182352638,
        "Longitude(deg)": -151.99392844142318,
        "Mean Anomaly(deg)": 157.17002184185665,
        "RAAN(deg)": 144.96472363473185,
        "Satellite Name": "Starlink Shell 1 645",
        "Satellite Number": 645,
        "Semi-Major Axis(m)": 6931778.249405717,
        "Time(s)": 680
    },
    {
        "Altitude(m)": 553649.689070446,
        "Argument of Periapsis(deg)": 0.024051915086275345,
        "Eccentricity": 0.0,
        "Inclination(deg)": 53.0,
        "Latitude(deg)": 17.575349583572155,
        "Longitude(deg)": -151.61975896680494,
        "Mean Anomaly(deg)": 157.79685304541337,
        "RAAN(deg)": 144.9642048646544,
        "Satellite Name": "Starlink Shell 1 645",
        "Satellite Number": 645,
        "Semi-Major Axis(m)": 6931778.249405717,
        "Time(s)": 690
    },
    {
        "Altitude(m)": 553622.439067842,
        "Argument of Periapsis(deg)": 0.024400493565786583,
        "Eccentricity": 0.0,
        "Inclination(deg)": 53.0,
        "Latitude(deg)": 17.085625071667952,
        "Longitude(deg)": -151.24781754640694,
        "Mean Anomaly(deg)": 158.42368424897006,
        "RAAN(deg)": 144.9636860945769,
        "Satellite Name": "Starlink Shell 1 645",
        "Satellite Number": 645,
        "Semi-Major Axis(m)": 6931778.249405717,
        "Time(s)": 700
    },
    {
        "Altitude(m)": 553597.4957753917,
        "Argument of Periapsis(deg)": 0.024749072045297815,
        "Eccentricity": 0.0,
        "Inclination(deg)": 53.0,
        "Latitude(deg)": 16.595042412499797,
        "Longitude(deg)": -150.87803089639627,
        "Mean Anomaly(deg)": 159.05051545252678,
        "RAAN(deg)": 144.96316732449944,
        "Satellite Name": "Starlink Shell 1 645",
        "Satellite Number": 645,
        "Semi-Major Axis(m)": 6931778.249405717,
        "Time(s)": 710
    },
    {
        "Altitude(m)": 553574.8933494319,
        "Argument of Periapsis(deg)": 0.025097650524809053,
        "Eccentricity": 0.0,
        "Inclination(deg)": 53.0,
        "Latitude(deg)": 16.103631890183078,
        "Longitude(deg)": -150.51032663430914,
        "Mean Anomaly(deg)": 159.67734665608344,
        "RAAN(deg)": 144.96264855442197,
        "Satellite Name": "Starlink Shell 1 645",
        "Satellite Number": 645,
        "Semi-Major Axis(m)": 6931778.249405717,
        "Time(s)": 720
    },
    {
        "Altitude(m)": 553554.6649086496,
        "Argument of Periapsis(deg)": 0.02544622900432029,
        "Eccentricity": 0.0,
        "Inclination(deg)": 53.0,
        "Latitude(deg)": 15.611423325501068,
        "Longitude(deg)": -150.14463274812812,
        "Mean Anomaly(deg)": 160.3041778596402,
        "RAAN(deg)": 144.96212978434448,
        "Satellite Name": "Starlink Shell 1 645",
        "Satellite Number": 645,
        "Semi-Major Axis(m)": 6931778.249405717,
        "Time(s)": 730
    },
    {
        "Altitude(m)": 553536.8425150126,
        "Argument of Periapsis(deg)": 0.02579480748383153,
        "Eccentricity": 0.0,
        "Inclination(deg)": 53.0,
        "Latitude(deg)": 15.118446093920559,
        "Longitude(deg)": -149.78087857810158,
        "Mean Anomaly(deg)": 160.93100906319694,
        "RAAN(deg)": 144.96161101426702,
        "Satellite Name": "Starlink Shell 1 645",
        "Satellite Number": 645,
        "Semi-Major Axis(m)": 6931778.249405717,
        "Time(s)": 740
    },
    {
        "Altitude(m)": 553521.4571552122,
        "Argument of Periapsis(deg)": 0.026143385963342765,
        "Eccentricity": 0.0,
        "Inclination(deg)": 53.0,
        "Latitude(deg)": 14.624729143216214,
        "Longitude(deg)": -149.41899428559145,
        "Mean Anomaly(deg)": 161.55784026675363,
        "RAAN(deg)": 144.96109224418956,
        "Satellite Name": "Starlink Shell 1 645",
        "Satellite Number": 645,
        "Semi-Major Axis(m)": 6931778.249405717,
        "Time(s)": 750
    }
]